[
    {
        "Altitude(m)": 559277.6942448313,
        "Argument of Periapsis(deg)": 0.013245982221427002,
        "Eccentricity": 0.0,
        "Inclination(deg)": 53.0,
        "Latitude(deg)": 50.41468453225897,
        "Longitude(deg)": -21.586593284532075,
        "Mean Anomaly(deg)": -254.36221426484477,
        "RAAN(deg)": 324.9802867370561,
        "Satellite Name": "Starlink Shell 1 1435",
        "Satellite Number": 1435,
        "Semi-Major Axis(m)": 6931778.249405717,
        "Time(s)": 380
    },
    {
        "Altitude(m)": 559228.457218055,
        "Argument of Periapsis(deg)": 0.013594560700938237,
        "Eccentricity": 0.0,
        "Inclination(deg)": 53.0,
        "Latitude(deg)": 50.199402082203754,
        "Longitude(deg)": -20.708442012487065,
        "Mean Anomaly(deg)": -253.73538306128808,
        "RAAN(deg)": 324.97976796697856,
        "Satellite Name": "Starlink Shell 1 1435",
        "Satellite Number": 1435,
        "Semi-Major Axis(m)": 6931778.249405717,
        "Time(s)": 390
    },
    {
        "Altitude(m)": 559177.557582666,
        "Argument of Periapsis(deg)": 0.013943139180449475,
        "Eccentricity": 0.0,
        "Inclination(deg)": 53.0,
        "Latitude(deg)": 49.97690393270481,
        "Longitude(deg)": -19.838653973295056,
        "Mean Anomaly(deg)": -253.1085518577314,
        "RAAN(deg)": 324.97924919690104,
        "Satellite Name": "Starlink Shell 1 1435",
        "Satellite Number": 1435,
        "Semi-Major Axis(m)": 6931778.249405717,
        "Time(s)": 400
    },
    {
        "Altitude(m)": 559125.0263199954,
        "Argument of Periapsis(deg)": 0.014291717659960712,
        "Eccentricity": 0.0,
        "Inclination(deg)": 53.0,
        "Latitude(deg)": 49.74731153152907,
        "Longitude(deg)": -18.977355174435544,
        "Mean Anomaly(deg)": -252.48172065417467,
        "RAAN(deg)": 324.97873042682363,
        "Satellite Name": "Starlink Shell 1 1435",
        "Satellite Number": 1435,
        "Semi-Major Axis(m)": 6931778.249405717,
        "Time(s)": 410
    },
    {
        "Altitude(m)": 559070.8954381999,
        "Argument of Periapsis(deg)": 0.014640296139471948,
        "Eccentricity": 0.0,
        "Inclination(deg)": 53.0,
        "Latitude(deg)": 49.51074743108256,
        "Longitude(deg)": -18.12465694265774,
        "Mean Anomaly(deg)": -251.85488945061795,
        "RAAN(deg)": 324.97821165674617,
        "Satellite Name": "Starlink Shell 1 1435",
        "Satellite Number": 1435,
        "Semi-Major Axis(m)": 6931778.249405717,
        "Time(s)": 420
    },
    {
        "Altitude(m)": 559015.1979565507,
        "Argument of Periapsis(deg)": 0.014988874618983185,
        "Eccentricity": 0.0,
        "Inclination(deg)": 53.0,
        "Latitude(deg)": 49.26733504789566,
        "Longitude(deg)": -17.280655809351934,
        "Mean Anomaly(deg)": -251.22805824706126,
        "RAAN(deg)": 324.97769288666865,
        "Satellite Name": "Starlink Shell 1 1435",
        "Satellite Number": 1435,
        "Semi-Major Axis(m)": 6931778.249405717,
        "Time(s)": 430
    },
    {
        "Altitude(m)": 558957.9678891676,
        "Argument of Periapsis(deg)": 0.015337453098494424,
        "Eccentricity": 0.0,
        "Inclination(deg)": 53.0,
        "Latitude(deg)": 49.0171984318732,
        "Longitude(deg)": -16.445433433381442,
        "Mean Anomaly(deg)": -250.60122704350457,
        "RAAN(deg)": 324.9771741165912,
        "Satellite Name": "Starlink Shell 1 1435",
        "Satellite Number": 1435,
        "Semi-Major Axis(m)": 6931778.249405717,
        "Time(s)": 440
    },
    {
        "Altitude(m)": 558899.2402282776,
        "Argument of Periapsis(deg)": 0.01568603157800566,
        "Eccentricity": 0.0,
        "Inclination(deg)": 53.0,
        "Latitude(deg)": 48.76046204580503,
        "Longitude(deg)": -15.61905806914368,
        "Mean Anomaly(deg)": -249.97439583994785,
        "RAAN(deg)": 324.9766553465137,
        "Satellite Name": "Starlink Shell 1 1435",
        "Satellite Number": 1435,
        "Semi-Major Axis(m)": 6931778.249405717,
        "Time(s)": 450
    },
    {
        "Altitude(m)": 558839.0509269679,
        "Argument of Periapsis(deg)": 0.0160346100575169,
        "Eccentricity": 0.0,
        "Inclination(deg)": 53.0,
        "Latitude(deg)": 48.49725055553352,
        "Longitude(deg)": -14.801584549150109,
        "Mean Anomaly(deg)": -249.34756463639107,
        "RAAN(deg)": 324.97613657643626,
        "Satellite Name": "Starlink Shell 1 1435",
        "Satellite Number": 1435,
        "Semi-Major Axis(m)": 6931778.249405717,
        "Time(s)": 460
    },
    {
        "Altitude(m)": 558777.4368814692,
        "Argument of Periapsis(deg)": 0.016383188537028134,
        "Eccentricity": 0.0,
        "Inclination(deg)": 53.0,
        "Latitude(deg)": 48.22768863106272,
        "Longitude(deg)": -13.99305428921052,
        "Mean Anomaly(deg)": -248.72073343283438,
        "RAAN(deg)": 324.9756178063588,
        "Satellite Name": "Starlink Shell 1 1435",
        "Satellite Number": 1435,
        "Semi-Major Axis(m)": 6931778.249405717,
        "Time(s)": 470
    },
    {
        "Altitude(m)": 558714.4359129198,
        "Argument of Periapsis(deg)": 0.01673176701653937,
        "Eccentricity": 0.0,
        "Inclination(deg)": 53.0,
        "Latitude(deg)": 47.95190075880114,
        "Longitude(deg)": -13.193496824525578,
        "Mean Anomaly(deg)": -248.0939022292777,
        "RAAN(deg)": 324.9750990362813,
        "Satellite Name": "Starlink Shell 1 1435",
        "Satellite Number": 1435,
        "Semi-Major Axis(m)": 6931778.249405717,
        "Time(s)": 480
    },
    {
        "Altitude(m)": 558650.0867487204,
        "Argument of Periapsis(deg)": 0.017080345496050607,
        "Eccentricity": 0.0,
        "Inclination(deg)": 53.0,
        "Latitude(deg)": 47.67001106504518,
        "Longitude(deg)": -12.40292984661314,
        "Mean Anomaly(deg)": -247.46707102572094,
        "RAAN(deg)": 324.9745802662038,
        "Satellite Name": "Starlink Shell 1 1435",
        "Satellite Number": 1435,
        "Semi-Major Axis(m)": 6931778.249405717,
        "Time(s)": 490
    },
    {
        "Altitude(m)": 558584.4290033652,
        "Argument of Periapsis(deg)": 0.017428923975561842,
        "Eccentricity": 0.0,
        "Inclination(deg)": 53.0,
        "Latitude(deg)": 47.38214315072356,
        "Longitude(deg)": -11.621359249879983,
        "Mean Anomaly(deg)": -246.84023982216425,
        "RAAN(deg)": 324.9740614961264,
        "Satellite Name": "Starlink Shell 1 1435",
        "Satellite Number": 1435,
        "Semi-Major Axis(m)": 6931778.249405717,
        "Time(s)": 500
    },
    {
        "Altitude(m)": 558517.5031588449,
        "Argument of Periapsis(deg)": 0.01777750245507308,
        "Eccentricity": 0.0,
        "Inclination(deg)": 53.0,
        "Latitude(deg)": 47.08841993734747,
        "Longitude(deg)": -10.848780696928378,
        "Mean Anomaly(deg)": -246.2134086186075,
        "RAAN(deg)": 324.9735427260489,
        "Satellite Name": "Starlink Shell 1 1435",
        "Satellite Number": 1435,
        "Semi-Major Axis(m)": 6931778.249405717,
        "Time(s)": 510
    },
    {
        "Altitude(m)": 558449.3505446082,
        "Argument of Periapsis(deg)": 0.018126080934584315,
        "Eccentricity": 0.0,
        "Inclination(deg)": 53.0,
        "Latitude(deg)": 46.788963524051674,
        "Longitude(deg)": -10.085179673360605,
        "Mean Anomaly(deg)": -245.58657741505078,
        "RAAN(deg)": 324.97302395597137,
        "Satellite Name": "Starlink Shell 1 1435",
        "Satellite Number": 1435,
        "Semi-Major Axis(m)": 6931778.249405717,
        "Time(s)": 520
    },
    {
        "Altitude(m)": 558380.0133170784,
        "Argument of Periapsis(deg)": 0.018474659414095554,
        "Eccentricity": 0.0,
        "Inclination(deg)": 53.0,
        "Latitude(deg)": 46.48389505554546,
        "Longitude(deg)": -9.330531541760338,
        "Mean Anomaly(deg)": -244.9597462114941,
        "RAAN(deg)": 324.97250518589397,
        "Satellite Name": "Starlink Shell 1 1435",
        "Satellite Number": 1435,
        "Semi-Major Axis(m)": 6931778.249405717,
        "Time(s)": 530
    },
    {
        "Altitude(m)": 558309.5344387274,
        "Argument of Periapsis(deg)": 0.018823237893606792,
        "Eccentricity": 0.0,
        "Inclination(deg)": 53.0,
        "Latitude(deg)": 46.17333460073815,
        "Longitude(deg)": -8.584803104823001,
        "Mean Anomaly(deg)": -244.3329150079374,
        "RAAN(deg)": 324.9719864158165,
        "Satellite Name": "Starlink Shell 1 1435",
        "Satellite Number": 1435,
        "Semi-Major Axis(m)": 6931778.249405717,
        "Time(s)": 540
    },
    {
        "Altitude(m)": 558237.9576567488,
        "Argument of Periapsis(deg)": 0.019171816373118027,
        "Eccentricity": 0.0,
        "Inclination(deg)": 53.0,
        "Latitude(deg)": 45.85740104176956,
        "Longitude(deg)": -7.847952649289408,
        "Mean Anomaly(deg)": -243.70608380438068,
        "RAAN(deg)": 324.971467645739,
        "Satellite Name": "Starlink Shell 1 1435",
        "Satellite Number": 1435,
        "Semi-Major Axis(m)": 6931778.249405717,
        "Time(s)": 550
    },
    {
        "Altitude(m)": 558165.3274813208,
        "Argument of Periapsis(deg)": 0.019520394852629266,
        "Eccentricity": 0.0,
        "Inclination(deg)": 53.0,
        "Latitude(deg)": 45.536211973126356,
        "Longitude(deg)": -7.119929981239867,
        "Mean Anomaly(deg)": -243.0792526008239,
        "RAAN(deg)": 324.9709488756615,
        "Satellite Name": "Starlink Shell 1 1435",
        "Satellite Number": 1435,
        "Semi-Major Axis(m)": 6931778.249405717,
        "Time(s)": 560
    }
]